Pincode,State_Name,District_Name,City,LONGITUDE,LATITUDE
110001,Delhi,Central Delhi,Baroda House,77.2069,28.6978
110006,Delhi,Central Delhi,Hauz Qazi,77.2278,28.6491
110009,Delhi,North West,G T B Nagar,77.2069,28.6978
110011,Delhi,Central Delhi,Gym Khana club,77.2042,28.5981
110017,Delhi,South West,Malviya Nagar,77.2094,28.5342
110025,Delhi,South East Delhi,Jamia Nagar,77.2956,28.5539
110037,Delhi,South West,Gurgaon Road,77.0799,28.4796
110041,Delhi,North West,Tikri Kalan,76.965,28.6826
110042,Delhi,North West,Pehlad Pur,77.2918,28.4994
110043,Delhi,South West,Najafgarh,76.9855,28.609
110044,Delhi,South East Delhi,Badarpur,77.2986,28.5102
110053,Delhi,North East,Bhajan Pura,77.2592,28.7005
110059,Delhi,North West,Uttam Ngar,77.055,28.6196
110084,Delhi,North West,Burari,77.1946,28.7583
110085,Delhi,North West,Rithala,77.1007,28.7192
110086,Delhi,North West,Begumpur,77.0609,28.7239
110091,Delhi,South East Delhi,Chilla,77.2945,28.6078
110092,Delhi,South East Delhi,Anand Vihar,77.3027,28.6502
110094,Delhi,North East,Dayalpur,77.2717,28.7204
110096,Delhi,South East Delhi,Ghazipur,77.3218,28.6262
121001,Haryana,Faridabad,Faridabad,77.3178,28.4089
121002,Haryana,Faridabad,Sector 16A,77.3185,28.4061
121003,Haryana,Faridabad,Tilpat,77.3339,28.4637
121004,Haryana,Faridabad,Ballabgarh,77.3206,28.3388
121005,Haryana,Faridabad,Jawahar Colony,77.2847,28.367
121008,Haryana,Faridabad,Sector 29,77.0663,28.4669
121102,Haryana,Faridabad,Palwal,77.326,28.1473
122001,Delhi,Gurugram,Sector 17,77.0608,28.4791
122002,Delhi,Gurugram,Chakkarpur,77.0895,28.472
122003,Delhi,Gurugram,Sector 45,77.066,28.4466
122004,Delhi,Gurugram,Khandsa,76.9999,28.4223
122006,Delhi,Gurugram,Tikampur,76.9946,28.4925
122016,Delhi,Gurugram,Dundahera,77.0802,28.5134
122051,Delhi,Gurugram,Manesar,76.9428,28.3515
123401,Haryana,Rewari,Jatusana,76.5393,28.3323
124001,Haryana,Rohtak,Hissar Road,75.7211,29.1519
125001,Haryana,Hisar,Sector 14,75.7075,29.1726
131001,Haryana,Sonipat,Kakroi,76.9571,28.9604
132001,Haryana,Karnal,Karnal NDRI,76.9905,29.6857
132103,Haryana,Panipat,Panipat City,76.9635,29.3909
140301,Punjab,Sas Nagar,Kharar,76.6411,30.7499
140308,Punjab,Sas Nagar,Mohali,76.7179,30.7046
140603,Punjab,Patiala,Zirkapur,76.8173,30.6425
141001,Punjab,Ludhiana,Bharat Nagar Chowk,75.8414,30.9044
141003,Punjab,Ludhiana,Shimlapuri,75.8803,30.8659
141007,Punjab,Ludhiana,Basti Jodhewal,75.8664,30.9313
141008,Punjab,Ludhiana,Central Post Office,75.8475,30.9183
141010,Punjab,Ludhiana,Moti Nagar,75.8897,30.8964
141017,Punjab,Ludhiana,Jugiana,75.9376,30.8469
143001,Punjab,Amritsar,Amritsar G P O,74.8664,31.6377
144001,Punjab,Jalandhar,Jalandhar City,75.5762,31.326
144411,Punjab,Kapurthala,Madhopur,75.5973,32.3653
145001,Punjab,Pathankot,Mamoon,75.7005,32.2854
147001,Punjab,Patiala,Allowal,75.4854,31.1539
151001,Punjab,Bathinda,Balluana,74.782,30.2236
152116,Punjab,Fazilka,Abohar,74.2008,30.1469
160008,Punjab,Chandigarh,Sector 8,76.8,30.7416
160017,Punjab,Chandigarh,Chandigarh G P O,76.7836,30.7419
160066,Punjab,Sas Nagar,Aero City,76.7873,30.6252
160101,Punjab,Chandigarh,Kishangarh,76.8255,30.7311
171001,Himachal Pradesh,Shimla,Shimla G P O,77.1717,31.1055
171003,Himachal Pradesh,Shimla,AHQ,77.1734,31.1045
172001,Himachal Pradesh,Shimla,Duttnagar,77.5806,31.3934
173001,Himachal Pradesh,Sirmaur,Panjhal,77.3655,30.588
173025,Himachal Pradesh,Sirmaur,Banaur,77.7423,30.5808
173030,Himachal Pradesh,Sirmaur,Palion,77.1787,30.5639
173205,Himachal Pradesh,Solan,Baddi,76.7914,30.9578
173212,Himachal Pradesh,Solan,Solan,77.0999,30.9084
173220,Himachal Pradesh,Solan,Parwanoo,76.9584,30.8406
174005,Himachal Pradesh,Hamirpur,Raghunath Pura,76.7231,31.3018
174101,Himachal Pradesh,Solan,Nalagarh,76.7026,31.0461
174303,Himachal Pradesh,Una,Barnoh,76.2864,31.5062
175001,Himachal Pradesh,Mandi,Tarnoh,76.9225,31.7731
175101,Himachal Pradesh,Mandi,Kais,77.1543,31.9998
175105,Himachal Pradesh,Kullu,Malana,77.2613,32.0617
175131,Himachal Pradesh,Kullu,Manali,77.1892,32.2432
176001,Himachal Pradesh,Kangra,Kangra,76.2731,32.1015
176038,Himachal Pradesh,Kangra,Daulatpur,76.258,32.0539
176061,Himachal Pradesh,Kangra,Bhadraina,76.5362,32.1109
176215,Himachal Pradesh,Kangra,Dharamshala,76.3234,32.219
176310,Himachal Pradesh,Chamba,Chowgan Mohalla,76.1276,32.5592
176323,Himachal Pradesh,Chamba,Bistholuj,76.128,32.5616
177001,Himachal Pradesh,Hamirpur,Bhira,76.5688,31.6339
177005,Himachal Pradesh,Hamirpur,NIT Hamirpur,76.5274,31.7084
177220,Himachal Pradesh,Una,Palakwah,76.2494,31.3962
180001,Jammu and Kashmir,Jammu,Jammu,74.857,32.7266
180004,Jammu and Kashmir,Jammu,Gandhinagar,74.8596,32.7014
180005,Jammu and Kashmir,Jammu,Subash Nagar,74.8456,32.745
180011,Jammu and Kashmir,Jammu,Chowadi,74.9282,32.6813
180012,Jammu and Kashmir,Jammu,Railway Station,74.8795,32.7059
180020,Jammu and Kashmir,Jammu,Trikuta Nagar,74.8784,32.6968
181133,Jammu and Kashmir,Jammu,Bari Brahmna,74.9141,32.6365
181201,Jammu and Kashmir,Jammu,Akhnoor,74.7355,32.897
181221,Jammu and Kashmir,Jammu,Jagti,74.9063,32.8206
182101,Jammu and Kashmir,Udhampur,Udhampur,75.1326,32.916
182146,Jammu and Kashmir,Udhampur,Kaskoot,75.1852,33.4524
182301,Jammu and Kashmir,Udhampur,Adhkawari,74.9452,33.0081
184121,Jammu and Kashmir,Samba,Samba,75.1108,32.553
185101,Jammu and Kashmir,Poonch,Poonch,74.3118,33.762
185102,Jammu and Kashmir,Poonch,Sawjian,74.2942,33.8414
185131,Jammu and Kashmir,Rajouri,Bathuni,74.3196,33.3206
190001,Jammu and Kashmir,Srinagar,Srinagar G P O,74.8235,34.0716
190002,Jammu and Kashmir,Srinagar,Safakadal,74.7916,34.0944
190011,Jammu and Kashmir,Srinagar,Noushera,74.2443,33.1604
191111,Jammu and Kashmir,Budgam,Budgam,74.64,33.9349
191131,Jammu and Kashmir,Srinagar,Karhama,74.5191,34.0628
192101,Jammu and Kashmir,Anantnag,Anantnag,75.1487,33.7311
192201,Jammu and Kashmir,Anantnag,Dethunagnarian,75.3353,33.7051
192231,Jammu and Kashmir,Pulwama,Kulgam,75.018,33.645
192301,Jammu and Kashmir,Pulwama,Romoh,74.8973,33.9227
193101,Jammu and Kashmir,Baramulla,Baramulla,74.3499,34.199
193121,Jammu and Kashmir,Baramulla,Singhpora,74.6169,34.1504
193201,Jammu and Kashmir,Baramulla,Sopore,74.4624,34.2868
193222,Jammu and Kashmir,Kupwara,Kupwara,74.2546,34.5262
193224,Jammu and Kashmir,Kupwara,Hayan,74.0487,34.6234
193401,Jammu and Kashmir,Budgam,Kanihama,74.6152,34.1016
193411,Jammu and Kashmir,Budgam,Raiyar,74.6078,33.8954
193501,Jammu and Kashmir,Baramulla,Nesbal,74.6602,34.26383
193502,Jammu and Kashmir,Baramulla,Chutimulla,74.962,34.6493
194101,Jammu and Kashmir,Leh Ladakh,Leh Ladakh,77.5771,34.1526
194104,Jammu and Kashmir,Leh Ladakh,Chuglamsar,77.5877,34.1118
201001,Uttar Pradesh,Ghaziabad,Ghaziabad,77.4538,28.6692
201002,Uttar Pradesh,Ghaziabad,Rajapur,77.4609,28.6657
201009,Uttar Pradesh,Ghaziabad,Ghaziabad City,77.4538,28.6692
201014,Uttar Pradesh,Ghaziabad,Makanpur,77.3538,28.6391
201102,Uttar Pradesh,Ghaziabad,Loni,77.2986,28.7334
201301,Uttar Pradesh,Gautam Buddha Nagar,Gautam Buddha Nagar,77.5508,28.359
201303,Uttar Pradesh,Gautam Buddha Nagar,Noida Sector 37,77.3418,28.567
201304,Uttar Pradesh,Gautam Buddha Nagar,Baraula,77.3741,28.5622
201305,Uttar Pradesh,Gautam Buddha Nagar,Nagla Charandas,77.4064,28.5401
201306,Uttar Pradesh,Gautam Buddha Nagar,I A Surajpur,77.5032,28.5112
201307,Uttar Pradesh,Gautam Buddha Nagar,Sarfabad,77.387,25.5849
201308,Uttar Pradesh,Gautam Buddha Nagar,Alpha Greater Noida,77.4378,28.6774
201318,Uttar Pradesh,Gautam Buddha Nagar,Sector 01 Greater Noida,77.504,28.4744
202001,Uttar Pradesh,Aligarh,Aligarh,78.088,27.8974
208001,Uttar Pradesh,Kanpur Nagar,Kanpur Nagar,80.2321,26.4148
208002,Uttar Pradesh,Kanpur Nagar,Nawabganj,79.6306,28.5405
211002,Uttar Pradesh,Prayagraj,Allenganj,81.8648,25.4653
221001,Uttar Pradesh,Varanasi,Varanasi,82.9739,25.3176
221007,Uttar Pradesh,Varanasi,Konia,83.0321,25.3368
221010,Uttar Pradesh,Varanasi,Mahmoorganj,82.9793,25.3047
226004,Uttar Pradesh,Lucknow,Charbagh,80.9214,26.8323
226010,Uttar Pradesh,Lucknow,Gomti Nagar,81.0072,26.8496
226020,Uttar Pradesh,Lucknow,Diguria,80.9284,26.927
244001,Uttar Pradesh,Moradabad,Moradabad,78.7733,28.8386
244713,Uttarakhand,Udham Singh Nagar,Kunda,81.5212,25.7175
244715,Uttarakhand,Nainital,Ramnagar,79.1265,29.3948
246701,Uttar Pradesh,Bijnor,Bijnor,78.1351,29.3732
247001,Uttar Pradesh,Lucknow,Saharanpur,77.5552,29.968
247661,Uttarakhand,Haridwar,Bhagwanpur,77.8141,29.9417
247663,Uttarakhand,Haridwar,Badshahpur,78.1237,29.7931
247667,Uttarakhand,Haridwar,Roorkee,77.888,29.8543
248001,Uttarakhand,Dehradun,Dehradun City,78.0322,30.3165
248007,Uttarakhand,Dehradun,Pondha,77.971,30.3695
248008,Uttarakhand,Dehradun,Nathuwala,78.1083,30.2756
248011,Uttarakhand,Dehradun,Selaqui,77.8653,30.3682
248171,Uttarakhand,Dehradun,Mehuwala,77.9682,30.2983
249205,Uttarakhand,Dehradun,Haripur Kalan,78.1992,29.998
249401,Uttarakhand,Haridwar,Haridwar,78.1642,29.9457
249402,Uttarakhand,Haridwar,Rohalki,78.0409,29.9195
249403,Uttarakhand,Haridwar,Shivalik Nagar,78.0738,29.9353
249404,Uttarakhand,Haridwar,Dhanpura,78.1101,29.8467
250001,Uttar Pradesh,Meerut,Rajpura,77.7702,29.0112
261136,Uttar Pradesh,Sitapur,Dhourahra,80.679,27.568
262308,Uttarakhand,Udham Singh Nagar,Jhankat,79.7876,28.9504
262403,Uttarakhand,Udham Singh Nagar,Sittarganj,79.7007,28.9235
262405,Uttarakhand,Udham Singh Nagar,Ghusari,79.6939,28.9637
263139,Uttarakhand,Nainital,Haldwani,79.513,29.2183
263145,Uttarakhand,Udham Singh Nagar,Pantnagar,79.4908,29.0222
263148,Uttarakhand,Udham Singh Nagar,Nakatpura,79.7091,28.8637
263153,Uttarakhand,Udham Singh Nagar,Rudrapur,79.4141,28.9875
263453,Uttarakhand,Udham Singh Nagar,Loharri,79.4465,28.9742
282003,Uttar Pradesh,Agra,Agra Fort,78.0211,27.1795
301001,Rajasthan,Alwar,Alwar,76.6346,27.553
302001,Rajasthan,Jaipur,Ashok Nagar,75.8022,26.9089
302012,Rajasthan,Jaipur,Neemera,75.6327,26.8995
302013,Rajasthan,Jaipur,Akhepura,75.8229,27.0296
302015,Rajasthan,Jaipur,Gandhi Nagar,75.7989,26.8737
302016,Rajasthan,Jaipur,Bani Park,75.7936,26.9306
302017,Rajasthan,Jaipur,Malviya Nagar,75.8243,26.8549
302018,Rajasthan,Jaipur,Durgapura,75.7862,26.8518
302020,Rajasthan,Jaipur,Mansarovar,75.7628,26.8505
302021,Rajasthan,Jaipur,Vaishali Nagar,75.7489,26.9048
302022,Rajasthan,Jaipur,Sitapura Industrial Area,75.8342,26.784
302029,Rajasthan,Jaipur,Lakhana,75.756,26.7414
302033,Rajasthan,Jaipur,Pratap Nagar Housing Board,75.8107,26.8067
311001,Rajasthan,Bhilwara,Bhilwara,74.6313,25.3407
313001,Rajasthan,Udaipur,Karda,73.5182,24.9039
313002,Rajasthan,Udaipur,Udaipur H Magri,73.7794,24.9145
324006,Rajasthan,Kota,Kota City,75.8648,25.2138
332001,Rajasthan,Sikar,Sikar,75.1398,27.6094
334001,Rajasthan,Bikaner,Bikaner,73.3119,28.0229
335001,Rajasthan,Ganganagar,Mohanpura,73.8228,29.9688
342003,Rajasthan,Jodhpur,Shastri Nagar,73.0046,26.2626
360001,Gujarat,Rajkot,Rajkot City,70.8022,22.3039
364002,Gujarat,Bhavnagar,Adhewada,72.1579,21.7223
380001,Gujarat,Ahmadabad,Ahmedabad G P O,72.5833,23.0282
380006,Gujarat,Ahmadabad,Ambawadi,72.543,23.0224
380013,Gujarat,Ahmadabad,Naranpura Vistar,72.5553,23.0521
380015,Gujarat,Ahmadabad,S A C,72.5191,23.0276
380018,Gujarat,Ahmadabad,Saraspur,72.61,23.031
380058,Gujarat,Ahmadabad,Ambli,72.4834,23.027
382170,Gujarat,Ahmadabad,Bakrana,72.1609,22.9623
382330,Gujarat,Ahmadabad,Medra,72.566,23.0396
382345,Gujarat,Ahmadabad,Naroda Road,72.6536,23.0686
382350,Gujarat,Ahmadabad,Nikol,72.67,23.05
382405,Gujarat,Ahmadabad,Shahwadi,72.5727,22.9603
382415,Gujarat,Ahmadabad,Odhav,72.6729,23.025
382481,Gujarat,Ahmadabad,Gota,72.5407,23.1013
382721,Gujarat,Gandhinagar,Kalol,72.493,23.2418
384265,Gujarat,Ahmadabad,Rajpur,72.6107,23.0137
385001,Gujarat,Banas Kantha,Palanpur,72.4346,24.1724
385535,Gujarat,Banas Kantha,Agthala,71.8927,24.3042
390001,Gujarat,Vadodara,Madanzampa,73.1811,22.3073
392001,Gujarat,Bharuch,Bharuch,72.9959,21.7051
394210,Gujarat,Surat,Dindoli,72.8717,21.1521
394230,Gujarat,Surat,Kansad,72.8691,21.0733
395003,Gujarat,Surat,Surat RS,72.8311,21.1702
395004,Gujarat,Surat,Gotalawadi,72.8305,21.2154
395006,Gujarat,Surat,Valak,72.9179,21.2547
395009,Gujarat,Surat,Adajan Dn,72.785,21.2016
395010,Gujarat,Surat,Kumbharia,72.891,21.1859
396191,Gujarat,Valsad,Vapi,72.9106,20.3893
396210,Dadra Nagar Haveli and Daman Diu,Daman,Daman,72.8328,20.3974
396215,Dadra Nagar Haveli and Daman Diu,Daman,Dabhel,72.8922,20.4011
396230,Dadra Nagar Haveli and Daman Diu,Dadra And Nagar Haveli,Silvassa,73.0073,20.2753
396235,Dadra Nagar Haveli and Daman Diu,Dadra And Nagar Haveli,Kharadpada,72.9714,20.2347
396427,Gujarat,Navsari,Bhattai,72.9922,20.9573
400008,Maharashtra,Mumbai,Falkland Road,72.8226,18.9623
400070,Maharashtra,Mumbai,Kurla,72.8845,19.0726
400072,Maharashtra,Mumbai,Sakinaka,72.8877,19.0962
400606,Maharashtra,Thane,Jekegram,72.9781,19.2183
400612,Maharashtra,Thane,Mumbra,73.0229,19.1761
400708,Maharashtra,Thane,Airoli,72.9986,19.159
403001,Goa,North Goa,Panaji,73.8278,15.4909
403401,Goa,South Goa,Farmagudi,74.021,15.4268
403516,Goa,North Goa,Calangute,73.7642,15.5366
403601,Goa,South Goa,Margao,73.9862,15.2832
403722,Goa,South Goa,Nagao,73.9234,15.3603
410206,Maharashtra,Raigad,Panvel City,73.1175,18.9894
410501,Maharashtra,Pune,Chakan,73.8613,18.7632
411001,Maharashtra,Pune,Pune Cantt East,73.8798,18.5118
411004,Maharashtra,Pune,Deccan Gymkhana,73.8366,18.5165
411006,Maharashtra,Pune,Yerwada,73.8797,18.5529
411014,Maharashtra,Pune,Viman nagar,73.9143,18.5679
411028,Maharashtra,Pune,Hadapsar,73.9259,18.5089
411033,Maharashtra,Pune,Punawale,73.7378,18.6309
411038,Maharashtra,Pune,Kothrud,73.8077,18.5074
411041,Maharashtra,Pune,Dhayari,73.8102,18.4471
411046,Maharashtra,Pune,Katraj,73.8652,18.4529
411057,Maharashtra,Pune,Wakad,73.7641,18.6011
412105,Maharashtra,Pune,Moshi,73.8492,18.6794
412207,Maharashtra,Pune,Kesnand,74.0241,18.5732
421201,Maharashtra,Thane,Dombivali,73.0939,19.2094
421301,Maharashtra,Thane,Kalyan City,73.1305,19.2403
421302,Maharashtra,Thane,Vadavali,73.1873,19.2042
422001,Maharashtra,Nashik,Nashik,73.7898,19.9975
431001,Maharashtra,Ahmednagar,Aurangabad MH,75.3433,19.8762
431003,Maharashtra,Ahmednagar,Nizamganj,76.5268,19.4667
431201,Maharashtra,Ahmednagar,Jalna,75.8816,19.8347
440002,Maharashtra,Nagpur,Nagpur City,79.0882,21.1458
440012,Maharashtra,Nagpur,Dhantoli,79.0816,21.1341
440015,Maharashtra,Nagpur,Vivekanand Nagar,79.0735,21.1395
444510,Maharashtra,Washim,Adoli,77.0622,20.0367
452001,Madhya Pradesh,Indore,Indore Takshashila,75.8298,22.6689
452003,Madhya Pradesh,Indore,Bhagirath Pura,75.8607,22.7456
452005,Madhya Pradesh,Indore,Bijasan Road,75.8385,22.7094
452010,Madhya Pradesh,Indore,Vijay Nagar,75.8937,22.7533
452016,Madhya Pradesh,Indore,Khudel,76.0305,22.6893
452020,Madhya Pradesh,Indore,Datoda,75.8839,22.5699
452056,Madhya Pradesh,Indore,Khajrana,75.9074,22.7355
455001,Madhya Pradesh,Dewas,Chidawad,76.1262,23.1497
456006,Madhya Pradesh,Ujjain,Amodiya,74.9446,22.6842
457001,Madhya Pradesh,Ujjain,Ratlam,75.0367,23.3315
461001,Madhya Pradesh,Hoshangabad,Hoshangabad,77.737,22.7441
462001,Madhya Pradesh,Bhopal,Bhopal G P O,77.3941,23.2605
462003,Madhya Pradesh,Bhopal,Shastri Nagar,77.3835,23.2228
462008,Madhya Pradesh,Bhopal,Barkhedi,77.4143,23.2551
462010,Madhya Pradesh,Bhopal,Nishatpura,77.4365,23.2863
462016,Madhya Pradesh,Bhopal,E 2 Sector,77.5263,23.2466
462021,Madhya Pradesh,Bhopal,Piplani Falls,77.4686,23.2469
462022,Madhya Pradesh,Bhopal,Anand Nagar,77.4857,23.252
462023,Madhya Pradesh,Bhopal,Govindpura,77.4349,23.2507
464001,Madhya Pradesh,Sagar,Simarhar,77.9541,23.4394
466001,Madhya Pradesh,Sehore,Jatakheda,76.9816,23.1536
470226,Madhya Pradesh,Sagar,Maharajpur,79.056,23.2809
474001,Madhya Pradesh,Gwalior,Lashkar,78.1735,26.1981
474003,Madhya Pradesh,Gwalior,Gwalior City,78.1772,26.2124
480001,Madhya Pradesh,Chhindwara,Chhindwara,78.9382,22.0574
482001,Madhya Pradesh,Jabalpur,Jabalpur,79.9339,23.1686
482002,Madhya Pradesh,Jabalpur,Jabalpur City,79.9339,23.1686
484001,Madhya Pradesh,Shahdol,Shahdol,81.3569,23.3002
485001,Madhya Pradesh,Satna,Satna,80.8322,24.6005
486331,Madhya Pradesh,Rewa,Mauganj,81.881,24.6697
487114,Madhya Pradesh,Narsinghpur,Nayagaon,79.2846,23.0351
490006,Chhattisgarh,Durg,Maroda Bhilai,81.3502,21.1629
490023,Chhattisgarh,Durg,Supela Bhilai,81.3495,21.2067
490025,Chhattisgarh,Durg,Deobaloda,81.4581,21.2245
491001,Chhattisgarh,Durg,Durg,81.2849,21.1904
491335,Chhattisgarh,Durg,Kanhera,81.6309,21.344
491441,Chhattisgarh,Rajnandgaon,Rajnandgaon,81.0337,21.0976
492001,Chhattisgarh,Raipur,Raipur,81.6296,21.2514
492009,Chhattisgarh,Raipur,Gudhiyari,81.6238,21.2602
492015,Chhattisgarh,Raipur,Deopuri,81.6845,21.2036
494001,Chhattisgarh,Raipur,Jagdalpur,82.0188,19.0861
495001,Chhattisgarh,Raipur,Juna Bilaspur,82.1646,22.0848
495450,Chhattisgarh,Korba,Gerwa,82.7545,22.1344
495660,Chhattisgarh,Janjgir Champa,Kapisda,82.7614,21.8548
496005,Chhattisgarh,Raigarh,Gorkha,83.3829,21.9192
497001,Chhattisgarh,Surguja,Ambikapur,83.1861,23.1294
500001,Telangana,Hyderabad,Gandhi Bhawan,78.4708,17.3884
500008,Telangana,Hyderabad,Golconda,78.4033,17.3848
500012,Telangana,Hyderabad,Begumbazar,78.4704,17.3748
500013,Telangana,Hyderabad,Amberpet,78.5163,17.392
500016,Telangana,Hyderabad,Begumpet,78.4664,17.4447
500018,Telangana,Rangareddy,Moosapet,78.4254,17.4665
500026,Telangana,Hyderabad,Nehrunagar,78.5032,17.3915
500029,Telangana,Hyderabad,Narayanguda,78.493,17.3986
500032,Telangana,Rangareddy,Gachibowli,78.3489,17.4401
500033,Telangana,Hyderabad,Jubilee Hills,78.4071,17.4326
500034,Telangana,Hyderabad,Banjara Hills,78.4387,17.4169
500037,Telangana,Hyderabad,Balanagar Township,78.4583,17.4848
500038,Telangana,Hyderabad,Sanjeeva Reddy Nagar,78.4458,17.4436
500039,Telangana,Hyderabad,Peerzadiguda,78.6098,17.3991
500050,Telangana,Hyderabad,Chandanagar,78.3278,17.4934
500055,Telangana,Hyderabad,Quthbullapur,78.4637,17.4984
500060,Telangana,Rangareddy,Dilsukhnagar Colony,78.5316,17.3685
500070,Telangana,Hyderabad,Vanastalipuram,78.5754,17.3317
500072,Telangana,Hyderabad,Kukatpally,78.3953,17.4875
500079,Telangana,Hyderabad,Vaishali Nagar,78.3451,17.486
500081,Telangana,Hyderabad,Madhapur,78.3908,17.4486
500084,Telangana,Rangareddy,Kothaguda,78.3756,17.4643
502032,Telangana,Sangareddy,Ameenpur,78.3157,17.5171
504107,Telangana,Nirmal,RGU IIIT Campus Basar,78.1454,19.1394
505001,Andhra Pradesh,Karimnagar,Mukarampura,79.1216,18.4319
506002,Telangana,Warangal Urban,Shivnagar,79.6035,17.9693
515001,Andhra Pradesh,Anantapur,Anantapur,77.6006,14.6819
516001,Andhra Pradesh,Anantapur,Kadapa,78.8242,14.4673
516259,Andhra Pradesh,Anantapur,Kuppam,78.3461,12.7482
516360,Andhra Pradesh,Anantapur,Proddatur,78.5541,14.7526
517501,Andhra Pradesh,Chittoor,Tirupati,79.4192,13.6288
517507,Andhra Pradesh,Chittoor,Thimminaidupalem,79.4539,13.6522
518002,Andhra Pradesh,Kurnool,Narnur,78.0633,15.8327
518501,Andhra Pradesh,Kurnool,Nandyal,78.4873,15.4777
518502,Andhra Pradesh,Kurnool,Deebaguntla,78.505,15.3871
520001,Andhra Pradesh,Krishna,Chittinagar,80.5987,16.5308
520002,Andhra Pradesh,Krishna,Arundalpet,80.6334,16.5164
520007,Andhra Pradesh,Krishna,Kanuru,80.6906,16.4968
520010,Andhra Pradesh,Krishna,Venkateswarapuram,80.6478,16.5004
520011,Andhra Pradesh,Krishna,Satyanarayanapuram,80.9948,16.4342
522001,Andhra Pradesh,Guntur,Old Guntur,80.4588,16.287
524002,Andhra Pradesh,Spsr Nellore,Nawabpeta,80.0018,14.4585
530001,Andhra Pradesh,Visakhapatnam,Visakhapatnam,83.2185,17.6868
530003,Andhra Pradesh,Visakhapatnam,Chinawaltair,83.3361,17.7258
530016,Andhra Pradesh,Visakhapatnam,Dwarakanagar,83.3093,17.7294
530017,Andhra Pradesh,Visakhapatnam,M V P Colony,83.3345,17.7413
530026,Andhra Pradesh,Visakhapatnam,Gajuwaka,83.2035,17.6851
533437,Andhra Pradesh,East Godavari,Vadlamuru,82.1618,17.0987
533464,Andhra Pradesh,East Godavari,Neelapalli,82.2271,16.7349
560001,Karnataka,Bengaluru Urban,Bangalore G P O,77.5951,12.9813
560027,Karnataka,Bengaluru Urban,Sampangiramnagar,77.5747,12.9937
560034,Karnataka,Bengaluru Urban,Koramangala,77.6245,12.9352
560037,Karnataka,Bengaluru Urban,Marathalli Colony,77.7011,12.9569
560043,Karnataka,Bengaluru Urban,Horamavu,77.6583,13.0326
560048,Karnataka,Bengaluru Urban,Mahadevapura,77.6895,12.988
560058,Karnataka,Bengaluru Urban,Laggere,77.5254,13.0098
560064,Karnataka,Bengaluru Urban,Yelahanka,77.607,13.1155
560066,Karnataka,Bengaluru Urban,Whitefield,77.75,12.9698
560067,Karnataka,Bengaluru Urban,Kadugodi,77.7608,12.9908
560068,Karnataka,Bengaluru Urban,Bommanahalli,77.6242,12.903
560076,Karnataka,Bengaluru Urban,Bannerghatta Road,77.5678,12.7701
560078,Karnataka,Bengaluru Urban,J P Nagar,77.5857,12.9063
560079,Karnataka,Bengaluru Urban,Basaveshwaranagar,77.5375,12.988
560091,Karnataka,Bengaluru Urban,Herohalli,77.4896,12.9897
560100,Karnataka,Bengaluru Urban,Electronics City,77.6602,12.8452
560103,Karnataka,Bengaluru Urban,Bellandur,77.6784,12.9304
575006,Karnataka,Dakshina Kannada,Ashok Nagar,74.8244,12.8948
577006,Karnataka,Davanagere,Devaraj URS Layout DVG,75.9075,14.4712
600003,Tamil Nadu,Chennai,Edapalayam,80.2774,13.086
600009,Tamil Nadu,Chennai,Fort St George,80.2865,13.0813
600016,Tamil Nadu,Kancheepuram,St Thomas Mount,80.1933,13.0051
600042,Tamil Nadu,Chennai,Velachery,80.218,12.9815
600053,Tamil Nadu,Thiruvallur,Vijayalakshmipuram,80.1567,13.1254
600056,Tamil Nadu,Thiruvallur,Poonamallee,80.0945,13.0473
600096,Tamil Nadu,Kancheepuram,Perungudi,80.2446,12.9592
600097,Tamil Nadu,Kancheepuram,Oggiamthoraipakkam,80.2369,12.9402
600100,Tamil Nadu,Kancheepuram,Medavakkam,80.1923,12.9171
600116,Tamil Nadu,Kancheepuram,Alapakkam,80.1673,13.049
600119,Tamil Nadu,Kancheepuram,Sholinganallur,80.2279,12.901
600130,Tamil Nadu,Kancheepuram,Navalur,80.2265,12.8459
602105,Tamil Nadu,Kancheepuram,Ulundai,79.8801,12.9931
605001,Puducherry,Puducherry,Puducherry,79.8083,11.9416
605002,Puducherry,Puducherry,Sri Aurobindo Ashram,79.8341,11.9367
605004,Puducherry,Puducherry,Mouroungapakkam,79.8087,11.9051
605007,Puducherry,Puducherry,Veerampattinam,79.8269,11.9016
605008,Puducherry,Puducherry,Lawspet,79.8188,11.955
605009,Puducherry,Puducherry,Thattanchavady,79.8052,11.9451
605014,Puducherry,Puducherry,Kalapet,79.8552,12.037
605107,Puducherry,Puducherry,Madugadipet,79.6362,11.9115
605110,Puducherry,Puducherry,Villiyanur,79.7586,11.9106
609602,Puducherry,Karaikal,Karaikal,79.838,10.9254
620001,Tamil Nadu,Tiruchirappalli,Tiruchirappalli,78.7047,10.7905
620008,Tamil Nadu,Tiruchirappalli,Palakkarai,78.7042,10.8036
625001,Tamil Nadu,Madurai,Simmakkal,78.1215,9.9261
635109,Tamil Nadu,Krishnagiri,Hosur East,77.8293,12.7351
635126,Tamil Nadu,Krishnagiri,Begepalli,77.8009,12.7799
636006,Tamil Nadu,Salem,Gugai,78.1562,11.6417
636014,Tamil Nadu,Salem,Kamaraj Nagar Colony,78.1488,11.6489
636015,Tamil Nadu,Salem,Kitchipalayam,78.1658,11.6499
638001,Tamil Nadu,Erode,Erode,77.7172,11.341
638003,Tamil Nadu,Erode,Karungalpalayam,77.7381,11.3516
641001,Tamil Nadu,Coimbatore,Coimbatore West,76.9458,11.0603
641018,Tamil Nadu,Coimbatore,Redfields,76.9859,11.005
641045,Tamil Nadu,Coimbatore,Ramanathapuram,76.8851,11.0782
641601,Tamil Nadu,Tiruppur,Tiruppur,77.3411,11.1085
641602,Tamil Nadu,Tiruppur,Tirupur North,77.3405,11.1222
641606,Tamil Nadu,Tiruppur,Mudalipalayam,77.4401,11.0993
670017,Kerala,Kannur,Kannur District Hospital,75.3718,11.8608
670645,Kerala,Kozhikode,Vemom,75.7804,11.2588
673004,Kerala,Kozhikode,Calicut City,75.7804,11.2588
673016,Kerala,Kozhikode,Govinda Puram,75.817,11.2136
673020,Kerala,Kozhikode,Calicut Collectorate,75.7917,11.2843
673032,Kerala,Kozhikode,Calicut Beach,75.7673,11.2626
673585,Kerala,Kozhikode,Narikkuni,75.8636,11.3658
673592,Kerala,Kozhikode,Beenachi,76.234,11.662
673602,Kerala,Kozhikode,Pannicode,76.008,11.2711
676504,Kerala,Malappuram,Kodur malabar,76.0673,11.0258
676517,Kerala,Malappuram,Melmuri,76.0798,11.0679
678001,Kerala,Palakkad,Palakkad,76.6548,10.7867
680001,Kerala,Thrissur,Thrissur,76.2144,10.5276
682003,Kerala,Ernakulam,Willingdon Island,76.2754,9.9483
682016,Kerala,Ernakulam,M G Road,76.318,10.0046
682020,Kerala,Ernakulam,Kadavanthara,76.2991,9.9704
682024,Kerala,Ernakulam,Edapally,76.3125,10.0261
682025,Kerala,Ernakulam,Palarivattom,76.3101,10.0014
682032,Kerala,Ernakulam,Thammanam,76.3108,9.9865
682035,Kerala,Ernakulam,Ernakulam College,76.278,9.98
682036,Kerala,Ernakulam,Panampilly Nagar,76.2957,9.9589
682038,Kerala,Ernakulam,Poonithura,76.3333,9.9386
682042,Kerala,Ernakulam,Infopark,76.2705,9.9391
682301,Kerala,Ernakulam,Tripunithura,76.3464,9.9487
682507,Kerala,Ernakulam,Mundamveli,76.2566,9.9204
682551,Lakshadweep,Lakshadweep,Androth,73.6801,10.8126
682555,Lakshadweep,Lakshadweep,Kavaratti,72.6358,10.5593
686001,Kerala,Kottayam,Kottayam,76.5222,9.5916
686004,Kerala,Kottayam,Devalokam,76.5434,9.5757
688012,Kerala,Kottayam,Moolavattom,76.5154,9.5596
691001,Kerala,Kollam,Kollam Taluk Cutchery,76.5857,8.8914
695001,Kerala,Thiruvananthapuram,Thiruvananthapuram Ags,76.9493,8.4987
695014,Kerala,Thiruvananthapuram,Thycaud,76.9613,8.4893
695581,Kerala,Thiruvananthapuram,Karyavattom,76.8908,8.5678
700001,West Bengal,Kolkata,Kolkatta G P O,88.3474,22.5729
700006,West Bengal,Kolkata,Jorasanko,88.3567,22.5832
700009,West Bengal,Kolkata,Parsibagan,88.3729,22.5794
700014,West Bengal,Kolkata,Entally,88.3724,22.5562
700015,West Bengal,Kolkata,Tangra,88.3888,22.5563
700019,West Bengal,Kolkata,Ballygunge,88.3659,22.528
700021,West Bengal,Kolkata,Fort William,88.3359,22.5542
700036,West Bengal,Kolkata,Baranagar,88.3777,22.6437
700039,West Bengal,South Twenty Four Parganas,Tiljala,88.3858,22.5269
700059,West Bengal,North Twenty Four Parganas,Ghuni,88.4582,22.5975
700091,West Bengal,North Twenty Four Parganas,Nabadiganta IT,88.4331,22.5735
700135,West Bengal,North Twenty Four Parganas,Sikharpur,88.5287,22.5968
700150,West Bengal,South Twenty Four Parganas,Sonarpur,88.392,22.4473
700156,West Bengal,North Twenty Four Parganas,New Town,88.4798,22.5754
711101,West Bengal,Howrah,Howrah,88.2636,22.5958
711102,West Bengal,Howrah,Sibpur,88.3109,22.5713
711104,West Bengal,Howrah,Santragachi,88.2839,22.5852
712401,West Bengal,Hooghly,Pursurah,87.9622,22.8357
712410,West Bengal,Purba Bardhaman,Gotan,87.9261,22.9788
713101,West Bengal,Paschim Bardhaman,Burdwan,87.8615,23.2324
713104,West Bengal,Purba Bardhaman,Baikunthapur,87.9359,23.2408
713145,West Bengal,Paschim Bardhaman,Kaigram,88.1351,23.453
713201,West Bengal,Paschim Bardhaman,Durgapur,87.3119,23.5204
713208,West Bengal,Paschim Bardhaman,Durgapur ASP SB Bureau,87.3219,23.5334
713405,West Bengal,Purba Bardhaman,Astogoria,88.37,23.2167
713519,West Bengal,Bankura,Samudragarh,88.3215,23.3466
721101,West Bengal,Paschim Medinipur,Midnapore,87.3199,22.4257
721301,West Bengal,Paschim Medinipur,Kharagpur,87.232,22.346
721401,West Bengal,Purba Medinipur,Contai,87.7517,21.7781
722101,West Bengal,Bankura,Nutanchati,87.0652,23.2372
722122,West Bengal,Bankura,Dwarika,87.3091,23.1005
722152,West Bengal,Bankura,Chingani,87.141,23.0693
723121,West Bengal,Purulia,Adra,86.6762,23.4959
731101,West Bengal,Birbhum,Suri,87.5268,23.9129
731234,West Bengal,Birbhum,Sainthia,87.6793,23.9487
732101,West Bengal,Maldah,Maldah,88.1411,25.0108
732125,West Bengal,Maldah,Barduary,87.8579,25.4186
732142,West Bengal,Maldah,Mangalbari,88.1499,25.0188
732206,West Bengal,Maldah,Mosimpur,88.0921,24.9005
733124,West Bengal,Maldah,Gangarampur,88.5324,25.4009
733127,West Bengal,Maldah,Tapan,88.571,25.3065
733128,West Bengal,Maldah,Gulandar,88.0852,25.4669
733140,West Bengal,Maldah,Mahanaj,88.6603,25.3162
734006,West Bengal,Maldah,Rabindra Sarani,88.3528,22.5761
736121,West Bengal,Maldah,Bararangrash,89.4056,26.4388
737101,Sikkim,East,Gangtok,88.6138,27.3314
737102,Sikkim,East,Dhajey,88.6176,27.2719
737132,Sikkim,East,Rangpo,88.5287,27.1761
737134,Sikkim,East,Bermiok,88.1826,27.256
737135,Sikkim,East,Ranipool,88.5916,27.2914
737136,Sikkim,East,Majitar,88.4997,27.1876
741126,West Bengal,Nadia,Bethuadahari,88.3973,23.5989
742101,West Bengal,Murshidabad,Laldighi,88.2552,24.0947
742133,West Bengal,Murshidabad,Kazisaha,88.2928,23.9202
742135,West Bengal,Murshidabad,Fulpur,88.3931,24.2796
742149,West Bengal,Murshidabad,Bhattabati,88.2193,24.1651
742213,West Bengal,Murshidabad,Khodarampur,88.1035,24.4605
742224,West Bengal,Murshidabad,Nimtita,87.9702,24.6502
742303,West Bengal,Murshidabad,Gangadaspara,88.5272,24.1332
742304,West Bengal,Murshidabad,Islampore,88.2009,26.2554
743251,West Bengal,North Twenty Four Parganas,Murighata,88.7926,23.123
744101,Andaman Nicobar,South Andaman,Port Blair,92.7265,11.6234
744102,Andaman Nicobar,South Andaman,Delanipur,92.7295,11.6726
744103,Andaman Nicobar,South Andaman,Ograbanj,92.6647,11.6027
744104,Andaman Nicobar,South Andaman,Sitapur,93.0551,11.8187
744105,Andaman Nicobar,South Andaman,Garacharama,92.7058,11.606
751001,Odisha,Khordha,Bhubaneswar G P O,85.8341,20.2719
751002,Odisha,Khordha,Kausalyaganga,85.8475,20.2201
751003,Odisha,Khordha,Ghatikia,85.768,20.2674
751006,Odisha,Khordha,Budheswari Colony,85.8467,20.2677
751007,Odisha,Khordha,Satyanagar Khorda,85.8499,20.2804
751010,Odisha,Khordha,Rasulgarh,85.8632,20.2945
751012,Odisha,Khordha,Nayapalli,85.8102,20.2899
751013,Odisha,Khordha,Regional Research Laboratory,85.864,20.2198
751019,Odisha,Khordha,Sarakantara,85.791,20.2226
751021,Odisha,Khordha,Sailashree Vihar,85.807,20.3329
751024,Odisha,Khordha,K I I T,85.8105,20.3533
751029,Odisha,Khordha,Ghatikia B.O Post Office,85.7641,20.271
751030,Odisha,Khordha,Khandagiri,85.7792,20.2569
752001,Odisha,Puri,Balisahi,85.9113,20.4395
752054,Odisha,Khordha,Kantabad,85.5796,19.778
752106,Odisha,Puri,Chanrapada,85.9898,20.0808
753001,Odisha,Cuttack,Cuttack G P O,85.875,20.4753
753008,Odisha,Cuttack,Tulasipur,85.8576,20.4858
754141,Odisha,Jagatsinghapur,Paradeeplock,86.6067,20.3107
755019,Odisha,Jajapur,Kiajhar,85.9927,21.106
755026,Odisha,Jajapur,Jakhapura,86.3333,20.85
756001,Odisha,Baleshwar,Azimabad,86.9269,21.4928
756003,Odisha,Baleshwar,Motiganj,86.9461,21.4946
756045,Odisha,Baleshwar,Soro,86.6918,21.2815
759015,Odisha,Dhenkanal,Dhirapatna,85.5484,20.5254
759121,Odisha,Dhenkanal,Nimabahali,85.3265,20.783
760001,Odisha,Ganjam,Gatebazar,84.7955,19.3149
769001,Odisha,Sundargarh,Rourkela,84.8536,22.2604
781001,Assam,Kamrup,Guwahati G P O,91.7457,26.1888
781005,Assam,Kamrup,Dispur,91.7898,26.1433
781009,Assam,Kamrup,Bharalumukh,91.7332,26.1743
781010,Assam,Kamrup,Kamakhya,91.7074,26.1659
781011,Assam,Kamrup,Gotanagar,91.6773,26.142
781012,Assam,Kamrup,Sadilapur,91.5427,26.1425
781013,Assam,Kamrup,Jalukbari,91.6435,26.1426
781019,Assam,Kamrup,Kahilipara,91.7621,26.1411
781022,Assam,Kamrup,Khanapara,91.8208,26.1213
781028,Assam,Kamrup,Beltola,91.8013,26.1286
781032,Assam,Kamrup,Indrapur,91.7659,26.1569
781038,Assam,Kamrup,Hatigaon Chariali,91.7858,26.129
781039,Assam,Kamrup,I I T G,91.7004,26.2027
781103,Assam,Kamrup,Halogaon,91.5197,26.2121
781136,Assam,Kamrup,Mahtoli,91.1303,26.1413
781301,Assam,Barpeta,Thakurbazar,91.01,26.3179
781308,Assam,Barpeta,Baghbar,90.8937,26.2307
781314,Assam,Barpeta,Ganakkuchi,91.0371,26.3183
781316,Assam,Barpeta,Howly,90.9801,26.4232
781319,Assam,Barpeta,Kalgachia,90.8711,26.3592
782003,Assam,Nagaon,Hatipara,91.2867,26.0977
782123,Assam,Nagaon,Bechamari,92.4629,26.3953
782126,Assam,Marigaon,Moirabari,92.4246,26.4535
782127,Assam,Marigaon,Barbori,92.3592,26.3971
782435,Assam,Nagaon,Singaribasti,92.8153,25.9993
783129,Assam,Goalpara,Joybhum,90.3301,26.0853
783330,Assam,Dhubri,Fakirganj,90.0716,25.9547
783348,Assam,Dhubri,Bilasipara,90.2304,26.2298
783380,Assam,Bongaigaon,Barpara,90.5577,26.2722
784001,Assam,Sonitpur,Sonitpur,92.6984,26.677
784115,Assam,Darrang,Niz Kharupetia,92.1475,26.5243
785001,Assam,Jorhat,Macharhat,94.2071,26.7707
786001,Assam,Dibrugarh,Dibrugarh,94.9125,27.4705
788151,Assam,Cachar,Hailakandi,92.5648,24.609
790101,Arunachal Pradesh,West Kameng,Dirang,92.2782,27.3495
790104,Arunachal Pradesh,Tawang,Lumberdung,91.8443,27.5681
790116,Arunachal Pradesh,West Kameng,Dahung,92.5067,27.2109
791001,Arunachal Pradesh,West Siang,Along,94.8054,28.1628
791102,Arunachal Pradesh,East Siang,Pasighat,95.3239,28.0632
791109,Arunachal Pradesh,Papum Pare,Nirjuli,93.7486,27.1178
791110,Arunachal Pradesh,Papum Pare,Naharlagun,93.6984,27.1086
791111,Arunachal Pradesh,Papum Pare,Itanagar,93.6053,27.0844
791112,Arunachal Pradesh,Papum Pare,Midpu,94.1317,27.5007
791113,Arunachal Pradesh,Papum Pare,Vivek Vihar,93.6268,27.0898
791120,Arunachal Pradesh,Lower Subansiri,Joram,93.5202,27.8277
792001,Arunachal Pradesh,Lohit,Tindolong,96.1188,27.9265
792102,Arunachal Pradesh,Lohit,Chakma,96.8127,28.114
792103,Arunachal Pradesh,Lohit,Diyun,95.8739,27.6412
792110,Arunachal Pradesh,Lower Dibang Valley,Abango,95.8939,28.0864
792131,Arunachal Pradesh,Tirap,Longding,95.3521,26.8372
793001,Meghalaya,East Khasi Hills,Shillong G P O,91.8848,25.5739
793002,Meghalaya,East Khasi Hills,Ledwuh,91.8745,25.5721
793004,Meghalaya,East Khasi Hills,Laban,91.8684,25.5592
793007,Meghalaya,East Khasi Hills,Happy Valley,91.9074,25.6078
793011,Meghalaya,East Khasi Hills,Assam Rifles,91.8725,25.57
793018,Meghalaya,East Khasi Hills,Neigrihms,91.9405,25.591
793022,Meghalaya,East Khasi Hills,Kynton Massar,91.8892,25.6048
793101,Meghalaya,Ribhoi,Jorabat,91.8623,26.0989
793102,Meghalaya,Ribhoi,Nongladew,91.7548,25.8668
793103,Meghalaya,Ribhoi,Bhoilymbong,92.0219,25.7095
793150,Meghalaya,West Jaintia Hills,Jowai,92.2089,25.4509
793151,Meghalaya,West Jaintia Hills,Nartiang,92.22,25.5795
793200,Meghalaya,East Jaintia Hills,Pala,92.6224,25.3814
793210,Meghalaya,East Jaintia Hills,Lumshnong,92.374,255.1789
794001,Meghalaya,West Garo Hills,Tura,90.2032,25.5141
794101,Meghalaya,West Garo Hills,Dakopgiri,90.1823,25.5189
794104,Meghalaya,West Garo Hills,Batabari,90.0409,25.7859
794105,Meghalaya,West Garo Hills,Garodoba,90.0551,25.5836
795001,Manipur,Imphal West,Imphal,93.9368,24.817
795002,Manipur,Imphal West,Heingang,93.9496,24.8374
795003,Manipur,Imphal West,Ningombam,93.8962,24.745
795004,Manipur,Imphal West,Lamphelpat,93.9114,24.8236
795005,Manipur,Imphal East,Porompat,93.9649,24.8133
795008,Manipur,Imphal East,Irilbung,93.9482,24.8063
795009,Manipur,Imphal West,Samurou,93.9037,24.6905
795010,Manipur,Imphal East,Phaknung,94.0097,24.862
795103,Manipur,Thoubal,Kakching,93.9831,24.4969
795107,Manipur,Senapati,Sapermeina,93.9107,25.0312
795116,Manipur,Imphal West,Borobekra,93.0884,24.6333
795128,Manipur,Churachandpur,Churachandpur,93.6978,24.3427
795129,Manipur,Senapati,Kangpokpi,93.97,25.1519
795130,Manipur,Thoubal,Nungei,93.9432,24.637
795132,Manipur,Imphal West,Uchiwa,93.8884,24.5664
795133,Manipur,Bishnupur,Haotakphailen,93.8364,24.3178
795138,Manipur,Thoubal,Charangpat,94.045,24.6448
795148,Manipur,Thoubal,Cherapur,94.0239,24.5939
795149,Manipur,Thoubal,Changamdabi,94.0772,24.6859
796005,Mizoram,Aizawl,Bungkawn,92.709,23.7196
796008,Mizoram,Aizawl,Armed Veng,92.7233,23.7352
796009,Mizoram,Aizawl,Chawlhhmun,92.6917,23.7459
796012,Mizoram,Aizawl,Ramhlun,92.7264,23.7475
796014,Mizoram,Aizawl,Lungdai,92.7407,23.8797
796017,Mizoram,Aizawl,Khanpui,92.9075,23.8559
796025,Mizoram,Aizawl,Durtlang,93.2505,23.1891
796081,Mizoram,Kolasib,Builum,92.7533,24.2361
796101,Mizoram,Kolasib,Vairengte,92.7584,24.491
796181,Mizoram,Serchhip,N Vanlaiphai,93.0613,23.1324
796321,Mizoram,Champhai,Hruaikawn,93.3569,23.3049
796441,Mizoram,Mamit,Dampui,92.4934,23.8164
796701,Mizoram,Lunglei,Lunglei,92.7655,22.8671
796751,Mizoram,Lunglei,Demagiri,92.4753,22.9165
796770,Mizoram,Lawngtlai,Udalthana,92.6164,22.5763
796772,Mizoram,Lawngtlai,Kamala Nagar,92.6363,22.6192
797001,Nagaland,Kohima,Kohima,94.1086,25.6751
797003,Nagaland,Kohima,Chedema,94.1095,25.6703
797021,Nagaland,Kohima,Viswema,94.145,25.5615
797103,Nagaland,Dimapur,Chumukedima,93.7541,25.8041
797111,Nagaland,Wokha,Wokha,94.2522,26.1024
797112,Nagaland,Dimapur,Dimapur,93.7266,25.9091
797113,Nagaland,Dimapur,Lengrijan,96.6934,25.9096
797115,Nagaland,Dimapur,Sukhovi,93.6953,25.7493
797116,Nagaland,Dimapur,Padampukhuri,93.7508,25.8692
797117,Nagaland,Dimapur,Circular Road,94.1035,25.7075
797118,Nagaland,Dimapur,Signal Village,93.7202,25.892
797120,Nagaland,Kohima,P R Hill,94.0996,25.6595
798601,Nagaland,Mokokchung,Mokokchung,94.5147,26.321
798612,Nagaland,Tuensang,Tuensang,94.8124,26.2345
798620,Nagaland,Zunheboto,Surumi,94.5512,26.1473
798621,Nagaland,Mon,Longpong Senghe,95.0563,26.5581
799001,Tripura,West Tripura,Agartala,91.2868,23.8315
799002,Tripura,West Tripura,Paschim Bhubanban,91.2598,23.8661
799003,Tripura,West Tripura,Badharghat,91.2723,23.8027
799004,Tripura,West Tripura,Dhupcherra,91.356,23.6182
799006,Tripura,West Tripura,Kathalbagan,90.3878,23.7464
799007,Tripura,West Tripura,Dhaleswar,91.2859,23.8276
799045,Tripura,West Tripura,Radhamohanpur,91.3976,23.7957
799046,Tripura,West Tripura,NIT Agartala,91.4214,23.8409
799102,Tripura,West Tripura,Sepahijala,91.3276,23.6148
799114,Tripura,South Tripura,Manikya,91.3298,23.4955
799115,Tripura,West Tripura,Chandigarh,91.3313,23.4973
799125,Tripura,South Tripura,Kalabon,91.4768,23.4311
799130,Tripura,West Tripura,Amtali,91.2674,23.773
799155,Tripura,South Tripura,Sarasima,91.487,23.2503
799250,Tripura,North Tripura,Dharmanagar,92.1548,24.3783
799277,Tripura,North Tripura,Bhadrapally,92.0241,24.3223
800001,Bihar,Patna,Indian Nation,85.1306,25.6043
800006,Bihar,Patna,Mahendru,85.1826,25.6188
800015,Bihar,Patna,Patna Sectt,85.1166,25.598
800020,Bihar,Patna,Lohia Nagar,85.1492,25.5901
800026,Bihar,Patna,B H Colony,85.1748,25.5927
801503,Bihar,Patna,Danapur Cantt,85.0415,25.6352
802301,Bihar,Patna,Arrah,84.6665,25.5541
803101,Bihar,Nalanda,Alinagar,86.259,26.0729
803216,Bihar,Nalanda,Tetrawan,85.5863,25.1316
812001,Bihar,Bhagalpur,Bhagalpur,86.9746,25.2372
812002,Bihar,Bhagalpur,Bhagalpur Cit,86.9842,25.2425
815301,Jharkhand,Giridih,Giridih,86.2996,24.1913
815353,Jharkhand,Deoghar,Madhupur,86.6467,24.2659
821115,Bihar,Rohtas,Sasaram,84.0143,24.9539
822114,Jharkhand,Garhwa,Adar,83.6933,24.3281
823001,Bihar,Gaya,Gaya,85.0002,24.7914
823002,Bihar,Gaya,Delha,85.048,24.8832
823003,Bihar,Gaya,Baragandhar,85.0399,24.7818
825301,Jharkhand,Hazaribagh,Pethiatand,85.3568,23.9954
825303,Jharkhand,Hazaribagh,Korrah,85.3927,23.9939
825401,Jharkhand,Hazaribagh,Ara,85.5557,23.7417
825409,Jharkhand,Koderma,Jhumri Telaiya,85.531,24.4315
826001,Jharkhand,Dhanbad,Dhanbad,86.4304,23.7957
826004,Jharkhand,Dhanbad,Kalyanpur,86.4105,23.8607
827001,Jharkhand,Bokaro,Steel City,86.1511,23.6693
827003,Jharkhand,Bokaro,Sector III,86.1516,23.661
827010,Jharkhand,Bokaro,Kunduari,86.1162,23.6444
827013,Jharkhand,Bokaro,Chas Bokaro,86.1828,23.6362
828109,Jharkhand,Dhanbad,Bagsuma,86.5577,23.8113
828401,Jharkhand,Dhanbad,Gomoh,86.1521,23.8702
829301,Jharkhand,Bokaro,Bahadurpur,85.9586,23.6543
831001,Jharkhand,East Singhbhum,Jamshedpur,86.2029,22.8046
831004,Jharkhand,East Singhbhum,Ghorabandha,86.2743,22.7762
832107,Jharkhand,East Singhbhum,Sundernagar,86.193,22.7267
832108,Jharkhand,Saraikela Kharsawan,Nawagarh,86.2327,23.7726
834001,Jharkhand,Ranchi,Chutia,85.3435,23.3455
834002,Jharkhand,Ranchi,Doranda,85.3191,23.3391
834005,Jharkhand,Ranchi,Hehal,85.2127,23.3956
834008,Jharkhand,Ranchi,Morabadi,85.3352,23.3955
834009,Jharkhand,Ranchi,Lame Baragaon,85.2826,23.4096
835210,Jharkhand,Ranchi,Jurdag,85.1868,23.0741
841226,Bihar,Siwan,Siwan,84.36,26.2243
842001,Bihar,Muzaffarpur,Muzaffarpur,85.391,26.1197
842002,Bihar,Muzaffarpur,Ramna,85.0084,24.7849
843302,Bihar,Sitamarhi,Banchauri,85.4775,26.5588
843322,Bihar,Sitamarhi,Kamaldah,85.5535,26.6479
844101,Bihar,Vaishali,Hajipur Chowk,84.4429,26.4698
845401,Bihar,Purbi Champaran,Bairia,84.8284,26.3287
845438,Bihar,Pashchim Champaran,Bettiah,84.5201,26.8026
846004,Bihar,Darbhanga,Darbhanga,85.8918,26.1542
848101,Bihar,Samastipur,Satmalpur,85.8563,25.8731
854301,Bihar,Purnia,Bhatta Bazar,87.4864,25.767
